{
  "type": "FeatureCollection",
  "features": [
    {
      "type": "Feature",
      "properties": {
        "norad_id": 33886,
        "name": "IRIDIUM 33 DEB",
        "group": "iridium-33-debris",
        "lat": -34.25388291641786,
        "lon": 61.57132364681073,
        "alt_km": 781.1378223626352,
        "timestamp": "2025-12-20T07:33:51.198213+00:00",
        "meta_object_name": "IRIDIUM 33 DEB",
        "meta_object_id": "1997-051BF",
        "meta_epoch": "2025-12-19T06:57:09.921024",
        "meta_mean_motion": 14.36059311,
        "meta_eccentricity": 0.0012851,
        "meta_inclination": 86.3826,
        "meta_ra_of_asc_node": 64.4719,
        "meta_arg_of_pericenter": 218.0066,
        "meta_mean_anomaly": 209.4542,
        "meta_ephemeris_type": 0,
        "meta_classification_type": "U",
        "meta_norad_cat_id": 33886,
        "meta_element_set_no": 999,
        "meta_rev_at_epoch": 88146,
        "meta_bstar": 0.00014374,
        "meta_mean_motion_dot": 4.38e-06,
        "meta_mean_motion_ddot": 0,
        "tle_line1": "1 33886U 97051BF  25353.28969816  .00000438  00000+0  14374-3 0  9993",
        "tle_line2": "2 33886  86.3826  64.4719 0012851 218.0066 209.4542 14.36059311881460"
      },
      "geometry": {
        "type": "Point",
        "coordinates": [
          61.57132364681073,
          -34.25388291641786
        ]
      }
    },
    {
      "type": "Feature",
      "properties": {
        "norad_id": 33887,
        "name": "IRIDIUM 33 DEB",
        "group": "iridium-33-debris",
        "lat": -66.01099839207892,
        "lon": -8.224279341417077,
        "alt_km": 775.4606064528107,
        "timestamp": "2025-12-20T07:33:51.198224+00:00",
        "meta_object_name": "IRIDIUM 33 DEB",
        "meta_object_id": "1997-051BG",
        "meta_epoch": "2025-12-19T10:45:03.204000",
        "meta_mean_motion": 14.37226728,
        "meta_eccentricity": 0.0005123,
        "meta_inclination": 86.3041,
        "meta_ra_of_asc_node": 0.5012,
        "meta_arg_of_pericenter": 199.3263,
        "meta_mean_anomaly": 290.2055,
        "meta_ephemeris_type": 0,
        "meta_classification_type": "U",
        "meta_norad_cat_id": 33887,
        "meta_element_set_no": 999,
        "meta_rev_at_epoch": 88261,
        "meta_bstar": 0.00011138,
        "meta_mean_motion_dot": 3.51e-06,
        "meta_mean_motion_ddot": 0,
        "tle_line1": "1 33887U 97051BG  25353.44795375  .00000351  00000+0  11138-3 0  9998",
        "tle_line2": "2 33887  86.3041   0.5012 0005123 199.3263 290.2055 14.37226728882615"
      },
      "geometry": {
        "type": "Point",
        "coordinates": [
          -8.224279341417077,
          -66.01099839207892
        ]
      }
    },
    {
      "type": "Feature",
      "properties": {
        "norad_id": 33953,
        "name": "IRIDIUM 33 DEB",
        "group": "iridium-33-debris",
        "lat": -76.50529181649691,
        "lon": 35.21532741517386,
        "alt_km": 727.2171162082032,
        "timestamp": "2025-12-20T07:33:51.198235+00:00",
        "meta_object_name": "IRIDIUM 33 DEB",
        "meta_object_id": "1997-051BN",
        "meta_epoch": "2025-12-19T10:33:02.314368",
        "meta_mean_motion": 14.55384025,
        "meta_eccentricity": 0.0018005,
        "meta_inclination": 86.3844,
        "meta_ra_of_asc_node": 50.8718,
        "meta_arg_of_pericenter": 82.4183,
        "meta_mean_anomaly": 296.2266,
        "meta_ephemeris_type": 0,
        "meta_classification_type": "U",
        "meta_norad_cat_id": 33953,
        "meta_element_set_no": 999,
        "meta_rev_at_epoch": 88401,
        "meta_bstar": 0.0007531,
        "meta_mean_motion_dot": 3.296e-05,
        "meta_mean_motion_ddot": 0,
        "tle_line1": "1 33953U 97051BN  25353.43961012  .00003296  00000+0  75310-3 0  9997",
        "tle_line2": "2 33953  86.3844  50.8718 0018005  82.4183 296.2266 14.55384025884018"
      },
      "geometry": {
        "type": "Point",
        "coordinates": [
          35.21532741517386,
          -76.50529181649691
        ]
      }
    },
    {
      "type": "Feature",
      "properties": {
        "norad_id": 33960,
        "name": "IRIDIUM 33 DEB",
        "group": "iridium-33-debris",
        "lat": -5.171550435380396,
        "lon": 106.28118386949077,
        "alt_km": 619.5305815988149,
        "timestamp": "2025-12-20T07:33:51.198245+00:00",
        "meta_object_name": "IRIDIUM 33 DEB",
        "meta_object_id": "1997-051BV",
        "meta_epoch": "2025-12-18T21:04:17.238720",
        "meta_mean_motion": 14.85489781,
        "meta_eccentricity": 0.00074649,
        "meta_inclination": 86.254,
        "meta_ra_of_asc_node": 286.6192,
        "meta_arg_of_pericenter": 52.1098,
        "meta_mean_anomaly": 12.0352,
        "meta_ephemeris_type": 0,
        "meta_classification_type": "U",
        "meta_norad_cat_id": 33960,
        "meta_element_set_no": 999,
        "meta_rev_at_epoch": 88958,
        "meta_bstar": 0.0022083229,
        "meta_mean_motion_dot": 0.0001912,
        "meta_mean_motion_ddot": 0,
        "tle_line1": "1 33960U 97051BV  25352.87797730  .00019120  00000+0  22083-2 0  9997",
        "tle_line2": "2 33960  86.2540 286.6192 0007464  52.1098  12.0352 14.85489781889584"
      },
      "geometry": {
        "type": "Point",
        "coordinates": [
          106.28118386949077,
          -5.171550435380396
        ]
      }
    },
    {
      "type": "Feature",
      "properties": {
        "norad_id": 33966,
        "name": "IRIDIUM 33 DEB",
        "group": "iridium-33-debris",
        "lat": -72.27285793697398,
        "lon": -125.83823970308697,
        "alt_km": 734.1268105387344,
        "timestamp": "2025-12-20T07:33:51.198256+00:00",
        "meta_object_name": "IRIDIUM 33 DEB",
        "meta_object_id": "1997-051CB",
        "meta_epoch": "2025-12-19T21:16:37.538112",
        "meta_mean_motion": 14.49619734,
        "meta_eccentricity": 0.00082223,
        "meta_inclination": 86.3915,
        "meta_ra_of_asc_node": 42.9601,
        "meta_arg_of_pericenter": 165.4982,
        "meta_mean_anomaly": 11.5705,
        "meta_ephemeris_type": 0,
        "meta_classification_type": "U",
        "meta_norad_cat_id": 33966,
        "meta_element_set_no": 999,
        "meta_rev_at_epoch": 88545,
        "meta_bstar": 0.00035428636,
        "meta_mean_motion_dot": 1.381e-05,
        "meta_mean_motion_ddot": 0,
        "tle_line1": "1 33966U 97051CB  25353.88654558  .00001381  00000+0  35429-3 0  9994",
        "tle_line2": "2 33966  86.3915  42.9601 0008222 165.4982  11.5705 14.49619734885459"
      },
      "geometry": {
        "type": "Point",
        "coordinates": [
          -125.83823970308697,
          -72.27285793697398
        ]
      }
    },
    {
      "type": "Feature",
      "properties": {
        "norad_id": 34071,
        "name": "IRIDIUM 33 DEB",
        "group": "iridium-33-debris",
        "lat": -44.646457699036795,
        "lon": 10.915586606085464,
        "alt_km": 738.778118900258,
        "timestamp": "2025-12-20T07:33:51.198266+00:00",
        "meta_object_name": "IRIDIUM 33 DEB",
        "meta_object_id": "1997-051CE",
        "meta_epoch": "2025-12-19T18:30:57.590496",
        "meta_mean_motion": 14.49493085,
        "meta_eccentricity": 0.00099492,
        "meta_inclination": 86.3449,
        "meta_ra_of_asc_node": 14.7718,
        "meta_arg_of_pericenter": 88.5882,
        "meta_mean_anomaly": 271.6461,
        "meta_ephemeris_type": 0,
        "meta_classification_type": "U",
        "meta_norad_cat_id": 34071,
        "meta_element_set_no": 999,
        "meta_rev_at_epoch": 88436,
        "meta_bstar": 0.00041371543,
        "meta_mean_motion_dot": 1.605e-05,
        "meta_mean_motion_ddot": 0,
        "tle_line1": "1 34071U 97051CE  25353.77149989  .00001605  00000+0  41372-3 0  9990",
        "tle_line2": "2 34071  86.3449  14.7718 0009949  88.5882 271.6461 14.49493085884362"
      },
      "geometry": {
        "type": "Point",
        "coordinates": [
          10.915586606085464,
          -44.646457699036795
        ]
      }
    },
    {
      "type": "Feature",
      "properties": {
        "norad_id": 34077,
        "name": "IRIDIUM 33 DEB",
        "group": "iridium-33-debris",
        "lat": -37.043778034871515,
        "lon": -129.09485915420095,
        "alt_km": 690.0357009567642,
        "timestamp": "2025-12-20T07:33:51.198277+00:00",
        "meta_object_name": "IRIDIUM 33 DEB",
        "meta_object_id": "1997-051CL",
        "meta_epoch": "2025-12-19T04:37:08.925888",
        "meta_mean_motion": 14.64901937,
        "meta_eccentricity": 0.0009486,
        "meta_inclination": 86.3856,
        "meta_ra_of_asc_node": 48.6652,
        "meta_arg_of_pericenter": 18.7729,
        "meta_mean_anomaly": 41.3423,
        "meta_ephemeris_type": 0,
        "meta_classification_type": "U",
        "meta_norad_cat_id": 34077,
        "meta_element_set_no": 999,
        "meta_rev_at_epoch": 88427,
        "meta_bstar": 0.00072795,
        "meta_mean_motion_dot": 3.915e-05,
        "meta_mean_motion_ddot": 0,
        "tle_line1": "1 34077U 97051CL  25353.19246442  .00003915  00000+0  72795-3 0  9993",
        "tle_line2": "2 34077  86.3856  48.6652 0009486  18.7729  41.3423 14.64901937884271"
      },
      "geometry": {
        "type": "Point",
        "coordinates": [
          -129.09485915420095,
          -37.043778034871515
        ]
      }
    }
  ]
}